[{"OBJECT_NAME":"STARLINK-36236","OBJECT_ID":"2025-298D","EPOCH":"2026-03-09T22:52:09.740064","MEAN_MOTION":14.98333747,"ECCENTRICITY":0.00038974,"INCLINATION":70.0013,"RA_OF_ASC_NODE":13.9198,"ARG_OF_PERICENTER":255.8336,"MEAN_ANOMALY":104.2391,"EPHEMERIS_TYPE":0,"CLASSIFICATION_TYPE":"U","NORAD_CAT_ID":67078,"ELEMENT_SET_NO":999,"REV_AT_EPOCH":1325,"BSTAR":0.00052810907,"MEAN_MOTION_DOT":6.215e-5,"MEAN_MOTION_DDOT":0},{"OBJECT_NAME":"H-2A R\/B","OBJECT_ID":"2025-141B","EPOCH":"2026-03-09T20:50:08.593728","MEAN_MOTION":14.90469893,"ECCENTRICITY":0.00923902,"INCLINATION":98.076,"RA_OF_ASC_NODE":17.3096,"ARG_OF_PERICENTER":151.0716,"MEAN_ANOMALY":209.5668,"EPHEMERIS_TYPE":0,"CLASSIFICATION_TYPE":"U","NORAD_CAT_ID":64695,"ELEMENT_SET_NO":999,"REV_AT_EPOCH":3783,"BSTAR":0.00033350933,"MEAN_MOTION_DOT":3.464e-5,"MEAN_MOTION_DDOT":0}]
